{
  "type": "FeatureCollection",
  "features": [
    {
      "type": "Feature",
      "properties": {
        "norad_id": 40362,
        "name": "YAOGAN-26",
        "group": "resource",
        "lat": 33.116262593941485,
        "lon": 162.86088632197493,
        "alt_km": 447.9291750900702,
        "timestamp": "2025-12-03T04:52:29.298560+00:00",
        "meta_object_name": "YAOGAN-26",
        "meta_object_id": "2014-088A",
        "meta_epoch": "2025-12-02T20:26:14.402976",
        "meta_mean_motion": 15.38758418,
        "meta_eccentricity": 0.0007374,
        "meta_inclination": 97.0639,
        "meta_ra_of_asc_node": 337.8825,
        "meta_arg_of_pericenter": 56.3756,
        "meta_mean_anomaly": 303.8193,
        "meta_ephemeris_type": 0,
        "meta_classification_type": "U",
        "meta_norad_cat_id": 40362,
        "meta_element_set_no": 999,
        "meta_rev_at_epoch": 60742,
        "meta_bstar": 0.00061063,
        "meta_mean_motion_dot": 0.00023378,
        "meta_mean_motion_ddot": 0,
        "tle_line1": "1 40362U 14088A   25336.85155559  .00023378  00000+0  61063-3 0  9999",
        "tle_line2": "2 40362  97.0639 337.8825 0007374  56.3756 303.8193 15.38758418607426"
      },
      "geometry": {
        "type": "Point",
        "coordinates": [
          162.86088632197493,
          33.116262593941485
        ]
      }
    },
    {
      "type": "Feature",
      "properties": {
        "norad_id": 40376,
        "name": "SMAP",
        "group": "resource",
        "lat": 68.64075934202546,
        "lon": -176.49779286389952,
        "alt_km": 674.9968923856986,
        "timestamp": "2025-12-03T04:52:29.298616+00:00",
        "meta_object_name": "SMAP",
        "meta_object_id": "2015-003A",
        "meta_epoch": "2025-12-02T20:10:10.579872",
        "meta_mean_motion": 14.63324117,
        "meta_eccentricity": 0.0001215,
        "meta_inclination": 98.1291,
        "meta_ra_of_asc_node": 341.707,
        "meta_arg_of_pericenter": 87.2057,
        "meta_mean_anomaly": 272.9284,
        "meta_ephemeris_type": 0,
        "meta_classification_type": "U",
        "meta_norad_cat_id": 40376,
        "meta_element_set_no": 999,
        "meta_rev_at_epoch": 57890,
        "meta_bstar": 0.00015802,
        "meta_mean_motion_dot": 7.69e-06,
        "meta_mean_motion_ddot": 0,
        "tle_line1": "1 40376U 15003A   25336.84040023  .00000769  00000+0  15802-3 0  9999",
        "tle_line2": "2 40376  98.1291 341.7070 0001215  87.2057 272.9284 14.63324117578907"
      },
      "geometry": {
        "type": "Point",
        "coordinates": [
          -176.49779286389952,
          68.64075934202546
        ]
      }
    },
    {
      "type": "Feature",
      "properties": {
        "norad_id": 40536,
        "name": "KOMPSAT-3A",
        "group": "resource",
        "lat": -71.0763528224179,
        "lon": -25.802181970954265,
        "alt_km": 445.28494040618807,
        "timestamp": "2025-12-03T04:52:29.298630+00:00",
        "meta_object_name": "KOMPSAT-3A",
        "meta_object_id": "2015-014A",
        "meta_epoch": "2025-12-02T21:24:33.642720",
        "meta_mean_motion": 15.4339637,
        "meta_eccentricity": 0.0003668,
        "meta_inclination": 97.677,
        "meta_ra_of_asc_node": 310.7,
        "meta_arg_of_pericenter": 147.9705,
        "meta_mean_anomaly": 212.1765,
        "meta_ephemeris_type": 0,
        "meta_classification_type": "U",
        "meta_norad_cat_id": 40536,
        "meta_element_set_no": 999,
        "meta_rev_at_epoch": 59143,
        "meta_bstar": 0.00055473,
        "meta_mean_motion_dot": 0.00024734,
        "meta_mean_motion_ddot": 0,
        "tle_line1": "1 40536U 15014A   25336.89205605  .00024734  00000+0  55473-3 0  9999",
        "tle_line2": "2 40536  97.6770 310.7000 0003668 147.9705 212.1765 15.43396370591430"
      },
      "geometry": {
        "type": "Point",
        "coordinates": [
          -25.802181970954265,
          -71.0763528224179
        ]
      }
    },
    {
      "type": "Feature",
      "properties": {
        "norad_id": 40697,
        "name": "SENTINEL-2A",
        "group": "resource",
        "lat": 12.251602873780474,
        "lon": 47.994925247587446,
        "alt_km": 790.0683411000409,
        "timestamp": "2025-12-03T04:52:29.298642+00:00",
        "meta_object_name": "SENTINEL-2A",
        "meta_object_id": "2015-028A",
        "meta_epoch": "2025-12-02T20:25:31.685088",
        "meta_mean_motion": 14.30820849,
        "meta_eccentricity": 0.0001042,
        "meta_inclination": 98.5703,
        "meta_ra_of_asc_node": 49.5245,
        "meta_arg_of_pericenter": 93.7237,
        "meta_mean_anomaly": 266.4065,
        "meta_ephemeris_type": 0,
        "meta_classification_type": "U",
        "meta_norad_cat_id": 40697,
        "meta_element_set_no": 999,
        "meta_rev_at_epoch": 54565,
        "meta_bstar": 0.00010294,
        "meta_mean_motion_dot": 2.26e-06,
        "meta_mean_motion_ddot": 0,
        "tle_line1": "1 40697U 15028A   25336.85106117  .00000226  00000+0  10294-3 0  9998",
        "tle_line2": "2 40697  98.5703  49.5245 0001042  93.7237 266.4065 14.30820849545650"
      },
      "geometry": {
        "type": "Point",
        "coordinates": [
          47.994925247587446,
          12.251602873780474
        ]
      }
    },
    {
      "type": "Feature",
      "properties": {
        "norad_id": 40701,
        "name": "GAOFEN-8",
        "group": "resource",
        "lat": -24.69100932300375,
        "lon": 158.4440025796916,
        "alt_km": 464.9073097865303,
        "timestamp": "2025-12-03T04:52:29.298653+00:00",
        "meta_object_name": "GAOFEN-8",
        "meta_object_id": "2015-030A",
        "meta_epoch": "2025-12-02T21:10:33.566880",
        "meta_mean_motion": 15.38025718,
        "meta_eccentricity": 0.0011201,
        "meta_inclination": 97.6907,
        "meta_ra_of_asc_node": 154.5459,
        "meta_arg_of_pericenter": 172.9093,
        "meta_mean_anomaly": 187.2311,
        "meta_ephemeris_type": 0,
        "meta_classification_type": "U",
        "meta_norad_cat_id": 40701,
        "meta_element_set_no": 999,
        "meta_rev_at_epoch": 58119,
        "meta_bstar": 0.00061886,
        "meta_mean_motion_dot": 0.00023155,
        "meta_mean_motion_ddot": 0,
        "tle_line1": "1 40701U 15030A   25336.88233295  .00023155  00000+0  61886-3 0  9997",
        "tle_line2": "2 40701  97.6907 154.5459 0011201 172.9093 187.2311 15.38025718581198"
      },
      "geometry": {
        "type": "Point",
        "coordinates": [
          158.4440025796916,
          -24.69100932300375
        ]
      }
    },
    {
      "type": "Feature",
      "properties": {
        "norad_id": 40718,
        "name": "CARBONITE 1 (CBNT-1)",
        "group": "resource",
        "lat": 12.320950769659317,
        "lon": 156.98714258656517,
        "alt_km": 631.2146079648155,
        "timestamp": "2025-12-03T04:52:29.298663+00:00",
        "meta_object_name": "CARBONITE 1 (CBNT-1)",
        "meta_object_id": "2015-032D",
        "meta_epoch": "2025-12-02T19:06:01.971360",
        "meta_mean_motion": 14.82666695,
        "meta_eccentricity": 0.0013813,
        "meta_inclination": 97.6401,
        "meta_ra_of_asc_node": 158.2781,
        "meta_arg_of_pericenter": 215.1277,
        "meta_mean_anomaly": 144.9027,
        "meta_ephemeris_type": 0,
        "meta_classification_type": "U",
        "meta_norad_cat_id": 40718,
        "meta_element_set_no": 999,
        "meta_rev_at_epoch": 56023,
        "meta_bstar": 0.00043511,
        "meta_mean_motion_dot": 3.463e-05,
        "meta_mean_motion_ddot": 0,
        "tle_line1": "1 40718U 15032D   25336.79585615  .00003463  00000+0  43511-3 0  9998",
        "tle_line2": "2 40718  97.6401 158.2781 0013813 215.1277 144.9027 14.82666695560238"
      },
      "geometry": {
        "type": "Point",
        "coordinates": [
          156.98714258656517,
          12.320950769659317
        ]
      }
    },
    {
      "type": "Feature",
      "properties": {
        "norad_id": 40878,
        "name": "YAOGAN-27",
        "group": "resource",
        "lat": 22.441902707774034,
        "lon": -36.96696223283848,
        "alt_km": 1197.500032603517,
        "timestamp": "2025-12-03T04:52:29.298674+00:00",
        "meta_object_name": "YAOGAN-27",
        "meta_object_id": "2015-040A",
        "meta_epoch": "2025-12-02T21:27:40.584672",
        "meta_mean_motion": 13.16059676,
        "meta_eccentricity": 0.0007754,
        "meta_inclination": 100.1004,
        "meta_ra_of_asc_node": 326.9599,
        "meta_arg_of_pericenter": 310.952,
        "meta_mean_anomaly": 49.0922,
        "meta_ephemeris_type": 0,
        "meta_classification_type": "U",
        "meta_norad_cat_id": 40878,
        "meta_element_set_no": 999,
        "meta_rev_at_epoch": 49184,
        "meta_bstar": 7.5959e-05,
        "meta_mean_motion_dot": -1.3e-07,
        "meta_mean_motion_ddot": 0,
        "tle_line1": "1 40878U 15040A   25336.89421973 -.00000013  00000+0  75959-4 0  9992",
        "tle_line2": "2 40878 100.1004 326.9599 0007754 310.9520  49.0922 13.16059676491847"
      },
      "geometry": {
        "type": "Point",
        "coordinates": [
          -36.96696223283848,
          22.441902707774034
        ]
      }
    }
  ]
}